{"type": "FeatureCollection", "features": [{"type": "Feature", "geometry": {"type": "LineString", "coordinates": [[151.22100840541, -33.917146203279], [151.22109812597, -33.917160222696], [151.22118953263, -33.917172952795]]}, "properties": {"segment_id": "S0001", "sequence": "orABD72zjPpv4xEUJm5IkH", "area": "kensington", "lat": -33.91716, "lon": 151.221099, "length_m": 17, "n_frames": 3, "n_road_frames": 3, "n_lines_found": 3, "detect_rate": 1.0, "both_lines_rate": 0.0, "median_contrast": 92.0, "n_review": 0, "n_not_road": 0, "verdict": "adas_readable", "confidence": "medium", "frame_ids": "1043027243798906;524199440322533;931984042075199"}}, {"type": "Feature", "geometry": {"type": "Point", "coordinates": [151.22021949384, -33.922812651706]}, "properties": {"segment_id": "S0002", "sequence": "CS21FWVnIZ0v9KQLbxDAzd", "area": "kensington", "lat": -33.922813, "lon": 151.220219, "length_m": 0, "n_frames": 1, "n_road_frames": 1, "n_lines_found": 0, "detect_rate": 0.0, "both_lines_rate": 0.0, "median_contrast": 0.0, "n_review": 0, "n_not_road": 0, "verdict": "insufficient_evidence", "confidence": "low", "frame_ids": "2307602429971916"}}, {"type": "Feature", "geometry": {"type": "Point", "coordinates": [151.2199399108, -33.923765225958]}, "properties": {"segment_id": "S0003", "sequence": "CS21FWVnIZ0v9KQLbxDAzd", "area": "kensington", "lat": -33.923765, "lon": 151.21994, "length_m": 0, "n_frames": 1, "n_road_frames": 1, "n_lines_found": 0, "detect_rate": 0.0, "both_lines_rate": 0.0, "median_contrast": 0.0, "n_review": 0, "n_not_road": 0, "verdict": "insufficient_evidence", "confidence": "low", "frame_ids": "1046995671360015"}}, {"type": "Feature", "geometry": {"type": "LineString", "coordinates": [[151.22021301877, -33.922644487148], [151.22015718338, -33.923051787438]]}, "properties": {"segment_id": "S0004", "sequence": "hTD16EikFP5JYCUGXKBHar", "area": "kensington", "lat": -33.922848, "lon": 151.220185, "length_m": 46, "n_frames": 2, "n_road_frames": 2, "n_lines_found": 2, "detect_rate": 1.0, "both_lines_rate": 0.0, "median_contrast": 65.8, "n_review": 0, "n_not_road": 0, "verdict": "at_risk", "confidence": "low", "frame_ids": "1394986042500590;1066600939149537"}}, {"type": "Feature", "geometry": {"type": "LineString", "coordinates": [[151.22471661227, -33.913329333832], [151.22470605402, -33.91338827226], [151.22469873585, -33.913426748385], [151.22469040983, -33.913464418026], [151.22468307262, -33.913495844436], [151.22467545814, -33.913528692424], [151.22466789039, -33.913560156273], [151.22465952692, -33.91359179356]]}, "properties": {"segment_id": "S0005", "sequence": "dul0qv8TWmVFgepPsErGyw", "area": "kensington", "lat": -33.913473, "lon": 151.224687, "length_m": 30, "n_frames": 8, "n_road_frames": 8, "n_lines_found": 6, "detect_rate": 0.75, "both_lines_rate": 0.38, "median_contrast": 84.6, "n_review": 0, "n_not_road": 0, "verdict": "adas_readable", "confidence": "high", "frame_ids": "652485710690002;1993398604822953;1546436153433107;1471547123982515;1464741334779380;2576252062773665;698744076518126;1110672291239130"}}, {"type": "Feature", "geometry": {"type": "LineString", "coordinates": [[151.2245353213, -33.912931924621], [151.22456631817, -33.912957523485], [151.22459091383, -33.91297865593], [151.224620526, -33.912993014098], [151.2246491418, -33.913009588552], [151.22476768585, -33.913090071301], [151.22479514886, -33.913113775949]]}, "properties": {"segment_id": "S0006", "sequence": "0pcztfjrxf1onqm2jeo3k9_v00", "area": "kensington", "lat": -33.913011, "lon": 151.224646, "length_m": 31, "n_frames": 7, "n_road_frames": 6, "n_lines_found": 1, "detect_rate": 0.17, "both_lines_rate": 0.0, "median_contrast": 88.1, "n_review": 1, "n_not_road": 0, "verdict": "not_readable", "confidence": "high", "frame_ids": "816202436003101;285247883780677;501827094937086;1113372976111512;652669475816323;273545344988958;1237880370077513"}}, {"type": "Feature", "geometry": {"type": "LineString", "coordinates": [[151.22462107625, -33.913615784541], [151.22463421955, -33.913548686929], [151.22465612974, -33.913439690517], [151.2246683289, -33.913381937211], [151.22468252916, -33.913314601205], [151.22470063122, -33.913227995112], [151.22472181332, -33.91312919001], [151.22473868867, -33.913052834824]]}, "properties": {"segment_id": "S0007", "sequence": "IZvpVUuOCPaenqmsYMlxA4", "area": "kensington", "lat": -33.913339, "lon": 151.224678, "length_m": 64, "n_frames": 8, "n_road_frames": 8, "n_lines_found": 2, "detect_rate": 0.25, "both_lines_rate": 0.0, "median_contrast": 102.2, "n_review": 0, "n_not_road": 0, "verdict": "not_readable", "confidence": "high", "frame_ids": "1156739971783226;3492835887669148;694555171790483;696221641522940;738125290701642;960350934669219;786315289002772;2140991126069301"}}, {"type": "Feature", "geometry": {"type": "LineString", "coordinates": [[151.22001936391, -33.922930380211], [151.22007318705, -33.922868517147]]}, "properties": {"segment_id": "S0008", "sequence": "IMVvNqF8yrLHZ2D3Y9kRKp", "area": "kensington", "lat": -33.922899, "lon": 151.220046, "length_m": 8, "n_frames": 2, "n_road_frames": 2, "n_lines_found": 2, "detect_rate": 1.0, "both_lines_rate": 0.0, "median_contrast": 63.8, "n_review": 0, "n_not_road": 0, "verdict": "at_risk", "confidence": "low", "frame_ids": "2256290038535376;1159132613651744"}}, {"type": "Feature", "geometry": {"type": "LineString", "coordinates": [[151.22554838627, -33.922610690794], [151.22555892315, -33.922685270224], [151.22556806958, -33.922743726329], [151.22557439558, -33.922785807867]]}, "properties": {"segment_id": "S0009", "sequence": "eNmLspgDhVP528EbBAOcFQ", "area": "kensington", "lat": -33.922706, "lon": 151.225562, "length_m": 20, "n_frames": 4, "n_road_frames": 4, "n_lines_found": 4, "detect_rate": 1.0, "both_lines_rate": 1.0, "median_contrast": 76.2, "n_review": 0, "n_not_road": 0, "verdict": "adas_readable", "confidence": "medium", "frame_ids": "1175729521199496;1679831653050482;1620754435843518;980077521019945"}}, {"type": "Feature", "geometry": {"type": "LineString", "coordinates": [[151.22476933128, -33.913234574887], [151.22455505013, -33.913030903711]]}, "properties": {"segment_id": "S0010", "sequence": "6okhdmdw78exa17k6rxmk9", "area": "kensington", "lat": -33.913133, "lon": 151.224662, "length_m": 30, "n_frames": 2, "n_road_frames": 2, "n_lines_found": 0, "detect_rate": 0.0, "both_lines_rate": 0.0, "median_contrast": 0.0, "n_review": 0, "n_not_road": 0, "verdict": "not_readable", "confidence": "low", "frame_ids": "213755446962710;1177944979301178"}}, {"type": "Feature", "geometry": {"type": "LineString", "coordinates": [[151.22841287121, -33.922500197974], [151.22839986083, -33.922482894639], [151.22839216884, -33.922446190205], [151.22840865023, -33.922530183495], [151.22843108839, -33.922498291021], [151.22845137501, -33.922463303348], [151.22846000087, -33.922417699266], [151.22845421209, -33.922365469286], [151.2284448172, -33.92230546559], [151.22843666214, -33.922250617732]]}, "properties": {"segment_id": "S0011", "sequence": "1Quoda49HCwkFX7VpDSI8t", "area": "kensington", "lat": -33.922426, "lon": 151.228429, "length_m": 28, "n_frames": 10, "n_road_frames": 9, "n_lines_found": 7, "detect_rate": 0.78, "both_lines_rate": 0.44, "median_contrast": 58.3, "n_review": 1, "n_not_road": 0, "verdict": "at_risk", "confidence": "high", "frame_ids": "1310653296561104;1257929635072454;2169076393471837;3059932414143171;455506423766049;945036970966718;1406510010044210;840058407975661;836163801753997;1182910232863558"}}, {"type": "Feature", "geometry": {"type": "Point", "coordinates": [151.22007455347, -33.923152583499]}, "properties": {"segment_id": "S0012", "sequence": "uQ9S5qGsJBfilC8eZXoz0d", "area": "kensington", "lat": -33.923153, "lon": 151.220075, "length_m": 0, "n_frames": 1, "n_road_frames": 1, "n_lines_found": 1, "detect_rate": 1.0, "both_lines_rate": 0.0, "median_contrast": 46.2, "n_review": 0, "n_not_road": 0, "verdict": "insufficient_evidence", "confidence": "low", "frame_ids": "1192645849694260"}}, {"type": "Feature", "geometry": {"type": "Point", "coordinates": [151.22028352292, -33.922385311942]}, "properties": {"segment_id": "S0013", "sequence": "uQ9S5qGsJBfilC8eZXoz0d", "area": "kensington", "lat": -33.922385, "lon": 151.220284, "length_m": 0, "n_frames": 1, "n_road_frames": 1, "n_lines_found": 0, "detect_rate": 0.0, "both_lines_rate": 0.0, "median_contrast": 0.0, "n_review": 0, "n_not_road": 0, "verdict": "insufficient_evidence", "confidence": "low", "frame_ids": "1786989502665491"}}, {"type": "Feature", "geometry": {"type": "LineString", "coordinates": [[151.22485817985, -33.913442327778], [151.22484160064, -33.913434607858], [151.22482618844, -33.913436471851]]}, "properties": {"segment_id": "S0014", "sequence": "xDzdqGnyFKYvSMp46sPuXH", "area": "kensington", "lat": -33.913438, "lon": 151.224842, "length_m": 3, "n_frames": 3, "n_road_frames": 3, "n_lines_found": 0, "detect_rate": 0.0, "both_lines_rate": 0.0, "median_contrast": 0.0, "n_review": 0, "n_not_road": 0, "verdict": "not_readable", "confidence": "medium", "frame_ids": "1441903550425830;1290528129339889;731086483088423"}}, {"type": "Feature", "geometry": {"type": "LineString", "coordinates": [[151.22475292714, -33.913106140914], [151.22477726029, -33.913128092758], [151.22480148317, -33.913149693746]]}, "properties": {"segment_id": "S0015", "sequence": "iYOFExBvjDKh46pobfwVQJ", "area": "kensington", "lat": -33.913128, "lon": 151.224777, "length_m": 7, "n_frames": 3, "n_road_frames": 3, "n_lines_found": 2, "detect_rate": 0.67, "both_lines_rate": 0.0, "median_contrast": 75.5, "n_review": 0, "n_not_road": 0, "verdict": "at_risk", "confidence": "medium", "frame_ids": "1383306160340146;2274796026597925;1331525045834293"}}, {"type": "Feature", "geometry": {"type": "Point", "coordinates": [151.22021600074, -33.922833953542]}, "properties": {"segment_id": "S0016", "sequence": "xpU9QLX8KJAla4WhcHgR0S", "area": "kensington", "lat": -33.922834, "lon": 151.220216, "length_m": 0, "n_frames": 1, "n_road_frames": 1, "n_lines_found": 0, "detect_rate": 0.0, "both_lines_rate": 0.0, "median_contrast": 0.0, "n_review": 0, "n_not_road": 0, "verdict": "insufficient_evidence", "confidence": "low", "frame_ids": "2176365623145417"}}, {"type": "Feature", "geometry": {"type": "Point", "coordinates": [151.21999028491, -33.923604201256]}, "properties": {"segment_id": "S0017", "sequence": "xpU9QLX8KJAla4WhcHgR0S", "area": "kensington", "lat": -33.923604, "lon": 151.21999, "length_m": 0, "n_frames": 1, "n_road_frames": 1, "n_lines_found": 1, "detect_rate": 1.0, "both_lines_rate": 0.0, "median_contrast": 47.7, "n_review": 0, "n_not_road": 0, "verdict": "insufficient_evidence", "confidence": "low", "frame_ids": "1368540398824415"}}, {"type": "Feature", "geometry": {"type": "Point", "coordinates": [151.22019892537, -33.922592872763]}, "properties": {"segment_id": "S0018", "sequence": "Wt4Knbf86AxaRiOCzghJwG", "area": "kensington", "lat": -33.922593, "lon": 151.220199, "length_m": 0, "n_frames": 1, "n_road_frames": 1, "n_lines_found": 0, "detect_rate": 0.0, "both_lines_rate": 0.0, "median_contrast": 0.0, "n_review": 0, "n_not_road": 0, "verdict": "insufficient_evidence", "confidence": "low", "frame_ids": "1418868639435882"}}, {"type": "Feature", "geometry": {"type": "Point", "coordinates": [151.22031428462, -33.922254232705]}, "properties": {"segment_id": "S0019", "sequence": "MvPAgZqS62sEbBLCtRUeJD", "area": "kensington", "lat": -33.922254, "lon": 151.220314, "length_m": 0, "n_frames": 1, "n_road_frames": 1, "n_lines_found": 0, "detect_rate": 0.0, "both_lines_rate": 0.0, "median_contrast": 0.0, "n_review": 0, "n_not_road": 0, "verdict": "insufficient_evidence", "confidence": "low", "frame_ids": "925816476993159"}}, {"type": "Feature", "geometry": {"type": "Point", "coordinates": [151.22003333305, -33.923410083993]}, "properties": {"segment_id": "S0020", "sequence": "MvPAgZqS62sEbBLCtRUeJD", "area": "kensington", "lat": -33.92341, "lon": 151.220033, "length_m": 0, "n_frames": 1, "n_road_frames": 1, "n_lines_found": 0, "detect_rate": 0.0, "both_lines_rate": 0.0, "median_contrast": 0.0, "n_review": 0, "n_not_road": 0, "verdict": "insufficient_evidence", "confidence": "low", "frame_ids": "1459612855578985"}}, {"type": "Feature", "geometry": {"type": "LineString", "coordinates": [[151.22191672457, -33.912580440856], [151.22208466962, -33.912592515679], [151.22216331425, -33.912597716574], [151.22226687931, -33.9126056307], [151.22237076783, -33.912614155232], [151.22246521203, -33.912622183366], [151.22255151872, -33.91262927392], [151.222604456, -33.912632592955]]}, "properties": {"segment_id": "S0021", "sequence": "zieYuhHd--c64zEaok5qAw", "area": "kensington", "lat": -33.912609, "lon": 151.222303, "length_m": 64, "n_frames": 8, "n_road_frames": 8, "n_lines_found": 0, "detect_rate": 0.0, "both_lines_rate": 0.0, "median_contrast": 0.0, "n_review": 0, "n_not_road": 0, "verdict": "not_readable", "confidence": "high", "frame_ids": "986656418538517;2884749738441220;596913161287753;1468328266850590;805428783433745;4035699806487480;4079458478813877;455726518861956"}}, {"type": "Feature", "geometry": {"type": "LineString", "coordinates": [[151.22475427021, -33.913101005061], [151.22483405373, -33.913172421887]]}, "properties": {"segment_id": "S0022", "sequence": "gPuWK4CFtMhTdbxcNmvZrI", "area": "kensington", "lat": -33.913137, "lon": 151.224794, "length_m": 11, "n_frames": 2, "n_road_frames": 2, "n_lines_found": 2, "detect_rate": 1.0, "both_lines_rate": 0.0, "median_contrast": 48.7, "n_review": 0, "n_not_road": 0, "verdict": "at_risk", "confidence": "low", "frame_ids": "1479918900575731;2876070859411800"}}, {"type": "Feature", "geometry": {"type": "Point", "coordinates": [151.22014725509, -33.922792210433]}, "properties": {"segment_id": "S0023", "sequence": "4YtuwXbsxi3NZLfA0Q52VU", "area": "kensington", "lat": -33.922792, "lon": 151.220147, "length_m": 0, "n_frames": 1, "n_road_frames": 1, "n_lines_found": 0, "detect_rate": 0.0, "both_lines_rate": 0.0, "median_contrast": 0.0, "n_review": 0, "n_not_road": 0, "verdict": "insufficient_evidence", "confidence": "low", "frame_ids": "1668514947964419"}}, {"type": "Feature", "geometry": {"type": "Point", "coordinates": [151.22010092762, -33.922488139555]}, "properties": {"segment_id": "S0024", "sequence": "uq6cfF3kOwRylAmZeSY4aB", "area": "kensington", "lat": -33.922488, "lon": 151.220101, "length_m": 0, "n_frames": 1, "n_road_frames": 1, "n_lines_found": 0, "detect_rate": 0.0, "both_lines_rate": 0.0, "median_contrast": 0.0, "n_review": 0, "n_not_road": 0, "verdict": "insufficient_evidence", "confidence": "low", "frame_ids": "1671868227176505"}}, {"type": "Feature", "geometry": {"type": "Point", "coordinates": [151.21991127577, -33.923598789924]}, "properties": {"segment_id": "S0025", "sequence": "GFL6WDcCkJVti2RdHebY9p", "area": "kensington", "lat": -33.923599, "lon": 151.219911, "length_m": 0, "n_frames": 1, "n_road_frames": 1, "n_lines_found": 0, "detect_rate": 0.0, "both_lines_rate": 0.0, "median_contrast": 0.0, "n_review": 0, "n_not_road": 0, "verdict": "insufficient_evidence", "confidence": "low", "frame_ids": "1687528529281620"}}, {"type": "Feature", "geometry": {"type": "Point", "coordinates": [151.22530055765, -33.919910806184]}, "properties": {"segment_id": "S0026", "sequence": "Lq7vNlGABcYeonrTsgSVIw", "area": "kensington", "lat": -33.919911, "lon": 151.225301, "length_m": 0, "n_frames": 1, "n_road_frames": 1, "n_lines_found": 0, "detect_rate": 0.0, "both_lines_rate": 0.0, "median_contrast": 0.0, "n_review": 0, "n_not_road": 0, "verdict": "insufficient_evidence", "confidence": "low", "frame_ids": "1689058149203137"}}, {"type": "Feature", "geometry": {"type": "LineString", "coordinates": [[151.22011134659, -33.922831493422], [151.22006722973, -33.923142053349]]}, "properties": {"segment_id": "S0027", "sequence": "Z85bMHzGOov3KNUVPDAF71", "area": "kensington", "lat": -33.922987, "lon": 151.220089, "length_m": 35, "n_frames": 2, "n_road_frames": 2, "n_lines_found": 0, "detect_rate": 0.0, "both_lines_rate": 0.0, "median_contrast": 0.0, "n_review": 0, "n_not_road": 0, "verdict": "not_readable", "confidence": "low", "frame_ids": "2212695945934619;1700007187888584"}}, {"type": "Feature", "geometry": {"type": "Point", "coordinates": [151.22018933679, -33.922722196985]}, "properties": {"segment_id": "S0028", "sequence": "mKvS31IkOetpRh0j6LnMFZ", "area": "kensington", "lat": -33.922722, "lon": 151.220189, "length_m": 0, "n_frames": 1, "n_road_frames": 1, "n_lines_found": 0, "detect_rate": 0.0, "both_lines_rate": 0.0, "median_contrast": 0.0, "n_review": 0, "n_not_road": 0, "verdict": "insufficient_evidence", "confidence": "low", "frame_ids": "1759786561885463"}}, {"type": "Feature", "geometry": {"type": "Point", "coordinates": [151.23418095847, -33.915979528799]}, "properties": {"segment_id": "S0029", "sequence": "cPJ8kQgqOQsZI2Jyl1ipDQ", "area": "kensington", "lat": -33.91598, "lon": 151.234181, "length_m": 0, "n_frames": 1, "n_road_frames": 1, "n_lines_found": 0, "detect_rate": 0.0, "both_lines_rate": 0.0, "median_contrast": 0.0, "n_review": 0, "n_not_road": 0, "verdict": "insufficient_evidence", "confidence": "low", "frame_ids": "225450259339624"}}, {"type": "Feature", "geometry": {"type": "LineString", "coordinates": [[151.2246868689, -33.913209073982], [151.22453929788, -33.913065107844]]}, "properties": {"segment_id": "S0030", "sequence": "cPJ8kQgqOQsZI2Jyl1ipDQ", "area": "kensington", "lat": -33.913137, "lon": 151.224613, "length_m": 21, "n_frames": 2, "n_road_frames": 2, "n_lines_found": 1, "detect_rate": 0.5, "both_lines_rate": 0.0, "median_contrast": 46.5, "n_review": 0, "n_not_road": 0, "verdict": "at_risk", "confidence": "low", "frame_ids": "285163939906657;1785472478280341"}}, {"type": "Feature", "geometry": {"type": "LineString", "coordinates": [[151.22020610555, -33.922971465121], [151.22066133507, -33.923004534906]]}, "properties": {"segment_id": "S0031", "sequence": "w8oA5W1F6nb2kpDtmgrqIf", "area": "kensington", "lat": -33.922988, "lon": 151.220434, "length_m": 42, "n_frames": 2, "n_road_frames": 2, "n_lines_found": 1, "detect_rate": 0.5, "both_lines_rate": 0.0, "median_contrast": 67.2, "n_review": 0, "n_not_road": 0, "verdict": "at_risk", "confidence": "low", "frame_ids": "2794394990928351;1973475370708740"}}, {"type": "Feature", "geometry": {"type": "Point", "coordinates": [151.22005783692, -33.92315940664]}, "properties": {"segment_id": "S0032", "sequence": "A2xGPXKveCE0sUawb13Rhq", "area": "kensington", "lat": -33.923159, "lon": 151.220058, "length_m": 0, "n_frames": 1, "n_road_frames": 1, "n_lines_found": 0, "detect_rate": 0.0, "both_lines_rate": 0.0, "median_contrast": 0.0, "n_review": 0, "n_not_road": 0, "verdict": "insufficient_evidence", "confidence": "low", "frame_ids": "2322287788301896"}}, {"type": "Feature", "geometry": {"type": "LineString", "coordinates": [[151.22011188799, -33.922929628156], [151.21990411467, -33.92333133479]]}, "properties": {"segment_id": "S0033", "sequence": "8dqizULDCITegPbKrx7XHm", "area": "kensington", "lat": -33.92313, "lon": 151.220008, "length_m": 49, "n_frames": 2, "n_road_frames": 2, "n_lines_found": 2, "detect_rate": 1.0, "both_lines_rate": 0.0, "median_contrast": 62.2, "n_review": 0, "n_not_road": 0, "verdict": "at_risk", "confidence": "low", "frame_ids": "4575928449358816;2484689178695896"}}, {"type": "Feature", "geometry": {"type": "LineString", "coordinates": [[151.22008176063, -33.922832342471], [151.22025267165, -33.922904522692]]}, "properties": {"segment_id": "S0034", "sequence": "KGPxOi9ao6qt0mS5Nyz1Ld", "area": "kensington", "lat": -33.922868, "lon": 151.220167, "length_m": 18, "n_frames": 2, "n_road_frames": 2, "n_lines_found": 2, "detect_rate": 1.0, "both_lines_rate": 0.0, "median_contrast": 70.2, "n_review": 0, "n_not_road": 0, "verdict": "at_risk", "confidence": "low", "frame_ids": "27513745911612425;966018506468449"}}, {"type": "Feature", "geometry": {"type": "LineString", "coordinates": [[151.22481091152, -33.913126603956], [151.22490032211, -33.913207448227]]}, "properties": {"segment_id": "S0035", "sequence": "3pFe5PJfZtgMm0nsIHOGE2", "area": "kensington", "lat": -33.913167, "lon": 151.224856, "length_m": 12, "n_frames": 2, "n_road_frames": 2, "n_lines_found": 1, "detect_rate": 0.5, "both_lines_rate": 0.0, "median_contrast": 111.9, "n_review": 0, "n_not_road": 0, "verdict": "at_risk", "confidence": "low", "frame_ids": "984411952981134;381621914411588"}}, {"type": "Feature", "geometry": {"type": "Point", "coordinates": [151.22474009988, -33.913045603756]}, "properties": {"segment_id": "S0036", "sequence": "X5J-Vfs37HXX7cCR68Oc3A", "area": "kensington", "lat": -33.913046, "lon": 151.22474, "length_m": 0, "n_frames": 1, "n_road_frames": 1, "n_lines_found": 1, "detect_rate": 1.0, "both_lines_rate": 0.0, "median_contrast": 60.1, "n_review": 0, "n_not_road": 0, "verdict": "insufficient_evidence", "confidence": "low", "frame_ids": "391445425321768"}}, {"type": "Feature", "geometry": {"type": "Point", "coordinates": [151.2200426998, -33.922930647786]}, "properties": {"segment_id": "S0037", "sequence": "03rWMfRlTLDUevHhtgABP1", "area": "kensington", "lat": -33.922931, "lon": 151.220043, "length_m": 0, "n_frames": 1, "n_road_frames": 1, "n_lines_found": 0, "detect_rate": 0.0, "both_lines_rate": 0.0, "median_contrast": 0.0, "n_review": 0, "n_not_road": 0, "verdict": "insufficient_evidence", "confidence": "low", "frame_ids": "4305777429658776"}}, {"type": "Feature", "geometry": {"type": "LineString", "coordinates": [[151.22461333333, -33.913241666667], [151.22437583333, -33.912996944444], [151.22429694444, -33.912918888889]]}, "properties": {"segment_id": "S0038", "sequence": "74cwmfd3mvu7exeky78snz_v00", "area": "kensington", "lat": -33.913052, "lon": 151.224429, "length_m": 46, "n_frames": 3, "n_road_frames": 2, "n_lines_found": 0, "detect_rate": 0.0, "both_lines_rate": 0.0, "median_contrast": 0.0, "n_review": 0, "n_not_road": 1, "verdict": "not_readable", "confidence": "low", "frame_ids": "548743033246429;691143692169392;535603077984728"}}, {"type": "Feature", "geometry": {"type": "Point", "coordinates": [151.22036403812, -33.922869232382]}, "properties": {"segment_id": "S0039", "sequence": "C2FHtVB16IAWmDrsfiYTqR", "area": "kensington", "lat": -33.922869, "lon": 151.220364, "length_m": 0, "n_frames": 1, "n_road_frames": 1, "n_lines_found": 0, "detect_rate": 0.0, "both_lines_rate": 0.0, "median_contrast": 0.0, "n_review": 0, "n_not_road": 0, "verdict": "insufficient_evidence", "confidence": "low", "frame_ids": "819497381173999"}}, {"type": "Feature", "geometry": {"type": "Point", "coordinates": [151.22047830515, -33.920467161927]}, "properties": {"segment_id": "S0040", "sequence": "PRqarZ7hQHuI3peKgCMmwA", "area": "kensington", "lat": -33.920467, "lon": 151.220478, "length_m": 0, "n_frames": 1, "n_road_frames": 1, "n_lines_found": 0, "detect_rate": 0.0, "both_lines_rate": 0.0, "median_contrast": 0.0, "n_review": 0, "n_not_road": 0, "verdict": "insufficient_evidence", "confidence": "low", "frame_ids": "869012069491054"}}, {"type": "Feature", "geometry": {"type": "Point", "coordinates": [151.22016121505, -33.923103269982]}, "properties": {"segment_id": "S0041", "sequence": "ydLnD8vMl5P0q7pBzjW14H", "area": "kensington", "lat": -33.923103, "lon": 151.220161, "length_m": 0, "n_frames": 1, "n_road_frames": 1, "n_lines_found": 0, "detect_rate": 0.0, "both_lines_rate": 0.0, "median_contrast": 0.0, "n_review": 0, "n_not_road": 0, "verdict": "insufficient_evidence", "confidence": "low", "frame_ids": "936871898898113"}}, {"type": "Feature", "geometry": {"type": "Point", "coordinates": [151.22008438558, -33.92324082737]}, "properties": {"segment_id": "S0042", "sequence": "2gaseNdCXoUPD6ELObIvTR", "area": "kensington", "lat": -33.923241, "lon": 151.220084, "length_m": 0, "n_frames": 1, "n_road_frames": 1, "n_lines_found": 0, "detect_rate": 0.0, "both_lines_rate": 0.0, "median_contrast": 0.0, "n_review": 0, "n_not_road": 0, "verdict": "insufficient_evidence", "confidence": "low", "frame_ids": "951426137466163"}}, {"type": "Feature", "geometry": {"type": "LineString", "coordinates": [[151.18822551987, -33.82632608062], [151.18823232712, -33.82634834682], [151.18825329491, -33.826416137631], [151.18826973976, -33.826473527622], [151.18828907785, -33.82654484537], [151.18830939568, -33.826619190068], [151.18832962867, -33.826691196246], [151.18834813358, -33.826756246069], [151.18836517722, -33.826816099276], [151.18838162313, -33.826874196318], [151.18839720359, -33.826929644935]]}, "properties": {"segment_id": "S0043", "sequence": "TCyubOXQ4187gVfetEFLxS", "area": "pacific_hwy", "lat": -33.826618, "lon": 151.188309, "length_m": 69, "n_frames": 11, "n_road_frames": 11, "n_lines_found": 8, "detect_rate": 0.73, "both_lines_rate": 0.18, "median_contrast": 87.8, "n_review": 0, "n_not_road": 0, "verdict": "adas_readable", "confidence": "high", "frame_ids": "1435560861729365;2558591514579126;1496302888844103;1763520568341169;1061666522953182;1036937222055349;2746516885729871;1339897908298412;1248624600614584;1040370378573757;1690553168910916"}}, {"type": "Feature", "geometry": {"type": "LineString", "coordinates": [[151.19983952363, -33.825455266934], [151.19979381772, -33.825403746347], [151.19974775484, -33.82535283578], [151.19969403792, -33.825293367743], [151.19964097587, -33.825236205229], [151.19959188952, -33.825187548028], [151.19953364967, -33.825140018152], [151.19947360409, -33.825054151153], [151.19941051482, -33.824984125025], [151.19935686117, -33.824918725075]]}, "properties": {"segment_id": "S0044", "sequence": "h8yCQbRlVhmmQ_mAmXV9pg", "area": "pacific_hwy", "lat": -33.825203, "lon": 151.199608, "length_m": 74, "n_frames": 10, "n_road_frames": 10, "n_lines_found": 7, "detect_rate": 0.7, "both_lines_rate": 0.1, "median_contrast": 84.2, "n_review": 0, "n_not_road": 0, "verdict": "adas_readable", "confidence": "high", "frame_ids": "459193598520271;1105333343285363;304468578061947;227157042540570;1474839556195629;215803599954094;810492323211354;460320101866736;1192102801227748;497434248277615"}}, {"type": "Feature", "geometry": {"type": "LineString", "coordinates": [[151.1953139619, -33.826194919916], [151.19526303111, -33.826078062467], [151.19521299343, -33.825960991863], [151.19516299848, -33.825845990274], [151.19511299939, -33.825729004408], [151.19506199891, -33.825610994721]]}, "properties": {"segment_id": "S0045", "sequence": "ICElpTenH-JFSQOoCRneIA", "area": "pacific_hwy", "lat": -33.825903, "lon": 151.195188, "length_m": 69, "n_frames": 6, "n_road_frames": 1, "n_lines_found": 1, "detect_rate": 1.0, "both_lines_rate": 0.0, "median_contrast": 83.3, "n_review": 0, "n_not_road": 5, "verdict": "insufficient_evidence", "confidence": "low", "frame_ids": "160591195982194;4113587152032928;282557760190919;477104846941221;4273458296019170;618092716254476"}}, {"type": "Feature", "geometry": {"type": "LineString", "coordinates": [[151.19398921603, -33.821361582735], [151.19397534651, -33.82123519063], [151.1939532644, -33.8211003277], [151.19392654104, -33.820961916488], [151.19389617353, -33.820818150274]]}, "properties": {"segment_id": "S0046", "sequence": "ICElpTenH-JFSQOoCRneIA", "area": "pacific_hwy", "lat": -33.821095, "lon": 151.193948, "length_m": 61, "n_frames": 5, "n_road_frames": 4, "n_lines_found": 2, "detect_rate": 0.5, "both_lines_rate": 0.0, "median_contrast": 89.0, "n_review": 0, "n_not_road": 1, "verdict": "at_risk", "confidence": "medium", "frame_ids": "176361921019380;515385989476629;3924396920931285;1147891375675010;305875341183901"}}, {"type": "Feature", "geometry": {"type": "LineString", "coordinates": [[151.19360301266, -33.819238063409], [151.19357099155, -33.819057955921], [151.19353900189, -33.818874012148]]}, "properties": {"segment_id": "S0047", "sequence": "ICElpTenH-JFSQOoCRneIA", "area": "pacific_hwy", "lat": -33.819057, "lon": 151.193571, "length_m": 41, "n_frames": 3, "n_road_frames": 1, "n_lines_found": 0, "detect_rate": 0.0, "both_lines_rate": 0.0, "median_contrast": 0.0, "n_review": 2, "n_not_road": 0, "verdict": "insufficient_evidence", "confidence": "low", "frame_ids": "4045651205473289;466410114694451;4475517175796385"}}, {"type": "Feature", "geometry": {"type": "LineString", "coordinates": [[151.19354300054, -33.818899997271], [151.19359699987, -33.819203001411]]}, "properties": {"segment_id": "S0048", "sequence": "sIdj7DSiyK-o-WIE6QuR-Q", "area": "pacific_hwy", "lat": -33.819051, "lon": 151.19357, "length_m": 34, "n_frames": 2, "n_road_frames": 0, "n_lines_found": 0, "detect_rate": 0.0, "both_lines_rate": 0.0, "median_contrast": 0.0, "n_review": 2, "n_not_road": 0, "verdict": "insufficient_evidence", "confidence": "low", "frame_ids": "128937855935705;2906204872931596"}}, {"type": "Feature", "geometry": {"type": "LineString", "coordinates": [[151.19388400258, -33.820749011938], [151.19392799895, -33.820999996104], [151.19396900359, -33.821238016544]]}, "properties": {"segment_id": "S0049", "sequence": "sIdj7DSiyK-o-WIE6QuR-Q", "area": "pacific_hwy", "lat": -33.820996, "lon": 151.193927, "length_m": 55, "n_frames": 3, "n_road_frames": 3, "n_lines_found": 2, "detect_rate": 0.67, "both_lines_rate": 0.0, "median_contrast": 59.7, "n_review": 0, "n_not_road": 0, "verdict": "at_risk", "confidence": "medium", "frame_ids": "476321603605395;2755247591397321;287160533145770"}}, {"type": "Feature", "geometry": {"type": "LineString", "coordinates": [[151.19509708819, -33.825692988426], [151.19519396654, -33.82591699709]]}, "properties": {"segment_id": "S0050", "sequence": "sIdj7DSiyK-o-WIE6QuR-Q", "area": "pacific_hwy", "lat": -33.825805, "lon": 151.195146, "length_m": 26, "n_frames": 2, "n_road_frames": 2, "n_lines_found": 1, "detect_rate": 0.5, "both_lines_rate": 0.5, "median_contrast": 44.3, "n_review": 0, "n_not_road": 0, "verdict": "at_risk", "confidence": "low", "frame_ids": "194692582370362;818057692441466"}}, {"type": "Feature", "geometry": {"type": "LineString", "coordinates": [[151.19353699993, -33.818863994245], [151.19359300083, -33.819182006394]]}, "properties": {"segment_id": "S0051", "sequence": "FVAbdju1mMPdItpDxkDyVg", "area": "pacific_hwy", "lat": -33.819023, "lon": 151.193565, "length_m": 36, "n_frames": 2, "n_road_frames": 0, "n_lines_found": 0, "detect_rate": 0.0, "both_lines_rate": 0.0, "median_contrast": 0.0, "n_review": 0, "n_not_road": 2, "verdict": "insufficient_evidence", "confidence": "low", "frame_ids": "535000724321800;1653594531504855"}}, {"type": "Feature", "geometry": {"type": "LineString", "coordinates": [[151.19395600737, -33.821161039141], [151.19398399908, -33.821319006452]]}, "properties": {"segment_id": "S0052", "sequence": "FVAbdju1mMPdItpDxkDyVg", "area": "pacific_hwy", "lat": -33.82124, "lon": 151.19397, "length_m": 18, "n_frames": 2, "n_road_frames": 0, "n_lines_found": 0, "detect_rate": 0.0, "both_lines_rate": 0.0, "median_contrast": 0.0, "n_review": 1, "n_not_road": 1, "verdict": "insufficient_evidence", "confidence": "low", "frame_ids": "898697364032303;3328870680549729"}}, {"type": "Feature", "geometry": {"type": "LineString", "coordinates": [[151.19506300466, -33.825613007933], [151.19516000098, -33.825838003661], [151.195259985, -33.826069964106]]}, "properties": {"segment_id": "S0053", "sequence": "FVAbdju1mMPdItpDxkDyVg", "area": "pacific_hwy", "lat": -33.82584, "lon": 151.195161, "length_m": 54, "n_frames": 3, "n_road_frames": 0, "n_lines_found": 0, "detect_rate": 0.0, "both_lines_rate": 0.0, "median_contrast": 0.0, "n_review": 0, "n_not_road": 3, "verdict": "insufficient_evidence", "confidence": "low", "frame_ids": "854099858874889;536406814412574;477842650305410"}}, {"type": "Feature", "geometry": {"type": "Point", "coordinates": [151.193909, -33.821346]}, "properties": {"segment_id": "S0054", "sequence": "lhb47yWrtYDZiBZ0LlMSbA", "area": "pacific_hwy", "lat": -33.821346, "lon": 151.193909, "length_m": 0, "n_frames": 1, "n_road_frames": 1, "n_lines_found": 1, "detect_rate": 1.0, "both_lines_rate": 0.0, "median_contrast": 54.5, "n_review": 0, "n_not_road": 0, "verdict": "insufficient_evidence", "confidence": "low", "frame_ids": "189259479697866"}}, {"type": "Feature", "geometry": {"type": "LineString", "coordinates": [[151.19474568055, -33.821382072043], [151.19462067193, -33.821079680282]]}, "properties": {"segment_id": "S0055", "sequence": "eA-mZAgrkBPWx49qpow7PQ", "area": "pacific_hwy", "lat": -33.821231, "lon": 151.194683, "length_m": 36, "n_frames": 2, "n_road_frames": 2, "n_lines_found": 2, "detect_rate": 1.0, "both_lines_rate": 0.5, "median_contrast": 53.2, "n_review": 0, "n_not_road": 0, "verdict": "at_risk", "confidence": "low", "frame_ids": "211857513836401;212441054024464"}}, {"type": "Feature", "geometry": {"type": "Point", "coordinates": [151.193885, -33.821334]}, "properties": {"segment_id": "S0056", "sequence": "jX0HF8TLhmG_Jq44CoF1ug", "area": "pacific_hwy", "lat": -33.821334, "lon": 151.193885, "length_m": 0, "n_frames": 1, "n_road_frames": 1, "n_lines_found": 1, "detect_rate": 1.0, "both_lines_rate": 0.0, "median_contrast": 48.2, "n_review": 0, "n_not_road": 0, "verdict": "insufficient_evidence", "confidence": "low", "frame_ids": "2788793944784441"}}, {"type": "Feature", "geometry": {"type": "Point", "coordinates": [151.19399800559, -33.821399999212]}, "properties": {"segment_id": "S0057", "sequence": "8a8a0LrQKq69DFKAQNoNew", "area": "pacific_hwy", "lat": -33.8214, "lon": 151.193998, "length_m": 0, "n_frames": 1, "n_road_frames": 0, "n_lines_found": 0, "detect_rate": 0.0, "both_lines_rate": 0.0, "median_contrast": 0.0, "n_review": 0, "n_not_road": 1, "verdict": "insufficient_evidence", "confidence": "low", "frame_ids": "465904848067419"}}, {"type": "Feature", "geometry": {"type": "Point", "coordinates": [151.18942167769, -33.819506813713]}, "properties": {"segment_id": "S0058", "sequence": "wpnric119cnrolqjkwlfuu", "area": "pacific_hwy", "lat": -33.819507, "lon": 151.189422, "length_m": 0, "n_frames": 1, "n_road_frames": 1, "n_lines_found": 1, "detect_rate": 1.0, "both_lines_rate": 1.0, "median_contrast": 51.8, "n_review": 0, "n_not_road": 0, "verdict": "insufficient_evidence", "confidence": "low", "frame_ids": "516625966036866"}}, {"type": "Feature", "geometry": {"type": "LineString", "coordinates": [[151.15748852497, -33.886949390048], [151.15749744574, -33.887036443726], [151.15752318806, -33.887235796191], [151.15753802463, -33.887348532459], [151.15756388847, -33.88757000406]]}, "properties": {"segment_id": "S0059", "sequence": "uyPCdhf6Itl1UiHxjn9aN5", "area": "parramatta_rd", "lat": -33.887228, "lon": 151.157522, "length_m": 69, "n_frames": 5, "n_road_frames": 5, "n_lines_found": 5, "detect_rate": 1.0, "both_lines_rate": 0.2, "median_contrast": 83.6, "n_review": 0, "n_not_road": 0, "verdict": "adas_readable", "confidence": "high", "frame_ids": "1007646673828042;1076658340444940;1266364594038680;1081936106487153;1092184821728883"}}, {"type": "Feature", "geometry": {"type": "LineString", "coordinates": [[151.15058392371, -33.880347811646], [151.1506142583, -33.880347986878], [151.15064606367, -33.880348689426], [151.15067832566, -33.880350638753], [151.15071090653, -33.880352195417], [151.15074440792, -33.880353789058], [151.15077483614, -33.880354803834], [151.15080615822, -33.88035564433], [151.15083714354, -33.880356707942], [151.15086834788, -33.880358075204], [151.15089951686, -33.88035924295], [151.15093043325, -33.880360427031], [151.15096113393, -33.88036145351], [151.15099162976, -33.88036243362], [151.15102171919, -33.88036348837], [151.15105151381, -33.880364591496], [151.15108152185, -33.880365569562], [151.1511118332, -33.880366691737], [151.15114194442, -33.880367828093], [151.15117212553, -33.880369097541], [151.1512020616, -33.880370576986]]}, "properties": {"segment_id": "S0060", "sequence": "J56IFBmTCbLsynK2tO1r9k", "area": "parramatta_rd", "lat": -33.880359, "lon": 151.150897, "length_m": 57, "n_frames": 21, "n_road_frames": 21, "n_lines_found": 21, "detect_rate": 1.0, "both_lines_rate": 0.38, "median_contrast": 83.6, "n_review": 0, "n_not_road": 0, "verdict": "adas_readable", "confidence": "high", "frame_ids": "720304513381185;1044342123317297;381860407665810;285321197887389;1058228078710557;1487800871786712;2108677989473465;943993050679294;335020492836014;1132173484374037;1534751160680251;1036249784331957;1421600032039877;1181590776153594;2093205971072122;1558875501629910;1776976169474756;1569436493827953;400568772328259;1123047628879885;1088520185503689"}}, {"type": "Feature", "geometry": {"type": "LineString", "coordinates": [[151.15400278956, -33.880603265074], [151.15398046328, -33.880612283807], [151.1539583379, -33.880621475512], [151.15393603046, -33.880630565375], [151.153913913, -33.880639446357], [151.15389149628, -33.880648667783], [151.15386924393, -33.880657755519], [151.15384745756, -33.880666661189], [151.15382592853, -33.880675269108], [151.15380215, -33.880684819382], [151.15377841008, -33.880694169879], [151.15375491838, -33.880703544251], [151.15373440006, -33.880711727125], [151.1537139789, -33.880719588396], [151.15369366791, -33.880727524233], [151.15367360216, -33.880735294196], [151.15365370381, -33.88074301514], [151.15363399118, -33.88075057345], [151.15361470221, -33.8807579824], [151.15359334736, -33.880766367965], [151.15357213587, -33.880774629833]]}, "properties": {"segment_id": "S0061", "sequence": "KGDXelOmy8gtnJkpb4ZcvH", "area": "parramatta_rd", "lat": -33.880692, "lon": 151.153783, "length_m": 44, "n_frames": 21, "n_road_frames": 21, "n_lines_found": 9, "detect_rate": 0.43, "both_lines_rate": 0.24, "median_contrast": 150.7, "n_review": 0, "n_not_road": 0, "verdict": "at_risk", "confidence": "high", "frame_ids": "774844581154358;24804797249165674;337238049283741;7871330466216975;1292426761425103;7432643090119429;380340541364970;292364670525422;763422668972345;370305782403668;1551555782297369;243111045504800;414123097630004;2479307065574281;432780239181137;688746950128372;919635733082545;352688097646834;751811176873647;904330001423112;2009367009436142"}}, {"type": "Feature", "geometry": {"type": "LineString", "coordinates": [[151.15121736171, -33.880378911598], [151.15118118798, -33.880378148166], [151.15114508974, -33.88037751325], [151.15110902052, -33.880376911136], [151.15107321067, -33.88037636423], [151.15103750942, -33.880376207911], [151.1510020615, -33.880375561698], [151.15096635639, -33.880375730149], [151.15093034637, -33.880375779115], [151.15089430587, -33.880375572173], [151.1508588578, -33.880375925589], [151.1508229025, -33.880376053832], [151.15078738778, -33.88037634513], [151.1507510359, -33.880376625005], [151.15071529918, -33.880376646332], [151.15068048758, -33.880376188075], [151.15064646142, -33.880375750821], [151.15061289752, -33.88037526045], [151.15058096005, -33.880374717905], [151.15055055792, -33.880374131302], [151.15052191337, -33.880373667137]]}, "properties": {"segment_id": "S0062", "sequence": "KGDXelOmy8gtnJkpb4ZcvH", "area": "parramatta_rd", "lat": -33.880376, "lon": 151.150861, "length_m": 64, "n_frames": 21, "n_road_frames": 21, "n_lines_found": 20, "detect_rate": 0.95, "both_lines_rate": 0.57, "median_contrast": 156.2, "n_review": 0, "n_not_road": 0, "verdict": "adas_readable", "confidence": "high", "frame_ids": "916344143210640;953000576250103;346377468301577;386370707374299;863178955557189;346792948267278;7679915055352527;378942504903532;1044460926669063;675377928142128;752317933198414;784765036797021;1076001410272105;923048766170724;911784800477772;738986004998589;1304013890289164;920171702654802;350186931313070;1106431940549791;1136101007405607"}}, {"type": "Feature", "geometry": {"type": "Point", "coordinates": [151.15751979694, -33.887218680513]}, "properties": {"segment_id": "S0063", "sequence": "splcGRmT9A0vr8INYMXEP3", "area": "parramatta_rd", "lat": -33.887219, "lon": 151.15752, "length_m": 0, "n_frames": 1, "n_road_frames": 1, "n_lines_found": 1, "detect_rate": 1.0, "both_lines_rate": 0.0, "median_contrast": 130.9, "n_review": 0, "n_not_road": 0, "verdict": "insufficient_evidence", "confidence": "low", "frame_ids": "1048949969513282"}}, {"type": "Feature", "geometry": {"type": "LineString", "coordinates": [[151.15748657192, -33.887516474225], [151.15746246663, -33.887372174587], [151.15741322277, -33.887075433871], [151.15740304318, -33.887017383797], [151.157387229, -33.886915830528], [151.1573836234, -33.886893706436]]}, "properties": {"segment_id": "S0064", "sequence": "9FHr316fc8oGCXU4naYqAs", "area": "parramatta_rd", "lat": -33.887132, "lon": 151.157423, "length_m": 70, "n_frames": 6, "n_road_frames": 6, "n_lines_found": 4, "detect_rate": 0.67, "both_lines_rate": 0.33, "median_contrast": 126.3, "n_review": 0, "n_not_road": 0, "verdict": "at_risk", "confidence": "high", "frame_ids": "1112102400203461;1056337388913526;1351320512167964;1307808089928413;1116214472673856;1103635653969648"}}, {"type": "Feature", "geometry": {"type": "LineString", "coordinates": [[151.1520355096, -33.880332189186], [151.15203050331, -33.88037711589], [151.15202713131, -33.880419511533], [151.15202452196, -33.880461386743], [151.15202362061, -33.880503381292], [151.15202332019, -33.880541452321], [151.15202351323, -33.880578772152], [151.15202340108, -33.880613888963], [151.1520229557, -33.880646900469], [151.15202310436, -33.880685731456], [151.15202317737, -33.880723768028], [151.15202297809, -33.880759581847], [151.15202301971, -33.880794730977], [151.15202344854, -33.88083031247], [151.15202406096, -33.880865241041], [151.15202491571, -33.880898769889], [151.15202584237, -33.880932300406], [151.1520268789, -33.880965826517], [151.15202798299, -33.880999096572], [151.15202937091, -33.881032752644], [151.15203089173, -33.881065859093], [151.15203232404, -33.881098310601]]}, "properties": {"segment_id": "S0065", "sequence": "Zlibf1GXLYUQ6aFNe9cCwp", "area": "parramatta_rd", "lat": -33.880733, "lon": 151.152026, "length_m": 85, "n_frames": 22, "n_road_frames": 22, "n_lines_found": 19, "detect_rate": 0.86, "both_lines_rate": 0.32, "median_contrast": 97.7, "n_review": 0, "n_not_road": 0, "verdict": "adas_readable", "confidence": "high", "frame_ids": "392587453248228;7173542096038242;1999645893771484;1388046905431857;7447107348656631;767836928494670;422801000089819;1108136130621876;383338777516138;1361163528125008;297306892873121;339458552243694;6788426267946580;1293117358029146;1675402779617585;1069199450950456;904854841274804;338068162486740;774679737826921;887959379469858;347272261625808;360517893283487"}}, {"type": "Feature", "geometry": {"type": "LineString", "coordinates": [[151.15718003003, -33.886811293308], [151.15728406477, -33.887069455961]]}, "properties": {"segment_id": "S0066", "sequence": "UDaR9YJ6WfxhvApO0Muose", "area": "parramatta_rd", "lat": -33.88694, "lon": 151.157232, "length_m": 30, "n_frames": 2, "n_road_frames": 2, "n_lines_found": 2, "detect_rate": 1.0, "both_lines_rate": 0.0, "median_contrast": 96.0, "n_review": 0, "n_not_road": 0, "verdict": "adas_readable", "confidence": "low", "frame_ids": "1090378439054435;1092458565539831"}}, {"type": "Feature", "geometry": {"type": "LineString", "coordinates": [[151.16749901399, -33.917305392164], [151.16754372968, -33.91734021664], [151.16758614786, -33.917377170241], [151.16760620343, -33.917394468698], [151.16764623716, -33.917429705859], [151.16766797735, -33.917448487233], [151.16773624706, -33.917506945006], [151.16777977455, -33.917543327963], [151.16784112327, -33.91759458543], [151.16786047165, -33.917611334153], [151.16787811133, -33.917626011197]]}, "properties": {"segment_id": "S0067", "sequence": "cYQ1RenJdtuzhGyofaOxZ5", "area": "princes_hwy", "lat": -33.917471, "lon": 151.167695, "length_m": 50, "n_frames": 11, "n_road_frames": 1, "n_lines_found": 1, "detect_rate": 1.0, "both_lines_rate": 0.0, "median_contrast": 67.9, "n_review": 10, "n_not_road": 0, "verdict": "insufficient_evidence", "confidence": "low", "frame_ids": "1317538776204285;1360660668470958;1186246655715948;1228618002014283;1203350151440562;1304611940603109;1334542557693258;1180830983703635;1353977409287709;1003410201851382;1199180281907479"}}, {"type": "Feature", "geometry": {"type": "LineString", "coordinates": [[151.16772166347, -33.917661517264], [151.16744194141, -33.917365769516]]}, "properties": {"segment_id": "S0068", "sequence": "XCdEsm1MHtSUrQlD4N6gk0", "area": "princes_hwy", "lat": -33.917514, "lon": 151.167582, "length_m": 42, "n_frames": 2, "n_road_frames": 2, "n_lines_found": 2, "detect_rate": 1.0, "both_lines_rate": 0.0, "median_contrast": 85.1, "n_review": 0, "n_not_road": 0, "verdict": "adas_readable", "confidence": "low", "frame_ids": "1003751604467921;1155409322378982"}}, {"type": "Feature", "geometry": {"type": "Point", "coordinates": [151.16771253949, -33.917633493744]}, "properties": {"segment_id": "S0069", "sequence": "yj6CbHYnM58kKDzsoIxmGc", "area": "princes_hwy", "lat": -33.917633, "lon": 151.167713, "length_m": 0, "n_frames": 1, "n_road_frames": 1, "n_lines_found": 0, "detect_rate": 0.0, "both_lines_rate": 0.0, "median_contrast": 0.0, "n_review": 0, "n_not_road": 0, "verdict": "insufficient_evidence", "confidence": "low", "frame_ids": "1005479828805219"}}, {"type": "Feature", "geometry": {"type": "LineString", "coordinates": [[151.16786413604, -33.917660934067], [151.1678946716, -33.917684869768], [151.16795330399, -33.917730775641]]}, "properties": {"segment_id": "S0070", "sequence": "FKeYAEZH8tDdNsawghVrW4", "area": "princes_hwy", "lat": -33.917692, "lon": 151.167904, "length_m": 11, "n_frames": 3, "n_road_frames": 3, "n_lines_found": 1, "detect_rate": 0.33, "both_lines_rate": 0.33, "median_contrast": 68.2, "n_review": 0, "n_not_road": 0, "verdict": "not_readable", "confidence": "medium", "frame_ids": "1214403990029845;1010140043919280;1179606723474233"}}, {"type": "Feature", "geometry": {"type": "LineString", "coordinates": [[151.16769384525, -33.91761366681], [151.16761935194, -33.917538235273], [151.1675655463, -33.9174828725], [151.16748670919, -33.917395676226], [151.16744883104, -33.917355928651]]}, "properties": {"segment_id": "S0071", "sequence": "gQUMwpE1oWd8c4IG92RZl3", "area": "princes_hwy", "lat": -33.917477, "lon": 151.167563, "length_m": 37, "n_frames": 5, "n_road_frames": 5, "n_lines_found": 1, "detect_rate": 0.2, "both_lines_rate": 0.0, "median_contrast": 53.4, "n_review": 0, "n_not_road": 0, "verdict": "not_readable", "confidence": "high", "frame_ids": "1276668394186183;1277144761205627;1151780463755981;1273897821567619;1016930347571454"}}, {"type": "Feature", "geometry": {"type": "LineString", "coordinates": [[151.16755206254, -33.91737193822], [151.1675728151, -33.917390693338], [151.16759343796, -33.917409465736], [151.16765651022, -33.917463511905]]}, "properties": {"segment_id": "S0072", "sequence": "d0H9NJyVtrLh6S4WEwOKYe", "area": "princes_hwy", "lat": -33.917409, "lon": 151.167594, "length_m": 14, "n_frames": 4, "n_road_frames": 4, "n_lines_found": 4, "detect_rate": 1.0, "both_lines_rate": 0.0, "median_contrast": 68.5, "n_review": 0, "n_not_road": 0, "verdict": "at_risk", "confidence": "medium", "frame_ids": "1022219765900801;1333180467899540;1325770015312700;1135776388297656"}}, {"type": "Feature", "geometry": {"type": "LineString", "coordinates": [[151.16752763041, -33.91737874741], [151.16756550054, -33.917414345835], [151.16764174945, -33.9174836901], [151.16774508425, -33.917575488853], [151.16776476556, -33.917593139002], [151.16778477344, -33.917610212967]]}, "properties": {"segment_id": "S0073", "sequence": "c9gMTXnpKy3RVdYmzN1IlZ", "area": "princes_hwy", "lat": -33.917509, "lon": 151.167672, "length_m": 35, "n_frames": 6, "n_road_frames": 6, "n_lines_found": 6, "detect_rate": 1.0, "both_lines_rate": 0.67, "median_contrast": 79.9, "n_review": 0, "n_not_road": 0, "verdict": "adas_readable", "confidence": "high", "frame_ids": "1061001495098457;1048961659484509;1065218478138357;1110940263651319;1040306750530039;1075042833646194"}}, {"type": "Feature", "geometry": {"type": "LineString", "coordinates": [[151.16755385839, -33.917477149117], [151.16751973056, -33.917442422646], [151.16750343905, -33.917425709255], [151.16748725173, -33.917409139602], [151.16742158608, -33.917340219232]]}, "properties": {"segment_id": "S0074", "sequence": "gd6c8lCSxaXfUKGtD2q3WT", "area": "princes_hwy", "lat": -33.917419, "lon": 151.167497, "length_m": 20, "n_frames": 5, "n_road_frames": 5, "n_lines_found": 5, "detect_rate": 1.0, "both_lines_rate": 1.0, "median_contrast": 101.3, "n_review": 0, "n_not_road": 0, "verdict": "adas_readable", "confidence": "high", "frame_ids": "1162223544746641;1052073969407596;1311906036175065;1337424470246274;1213125392980593"}}, {"type": "Feature", "geometry": {"type": "LineString", "coordinates": [[151.16755694641, -33.917419750978], [151.16769829738, -33.91757599799]]}, "properties": {"segment_id": "S0075", "sequence": "ORvybiwsI2AA_nPvVgWZeg", "area": "princes_hwy", "lat": -33.917498, "lon": 151.167628, "length_m": 22, "n_frames": 2, "n_road_frames": 2, "n_lines_found": 2, "detect_rate": 1.0, "both_lines_rate": 0.0, "median_contrast": 54.8, "n_review": 0, "n_not_road": 0, "verdict": "at_risk", "confidence": "low", "frame_ids": "1088628544967579;1275607759501740"}}, {"type": "Feature", "geometry": {"type": "Point", "coordinates": [151.16737597084, -33.917301202223]}, "properties": {"segment_id": "S0076", "sequence": "JzV6ceieVb8phivNI0dKSw", "area": "princes_hwy", "lat": -33.917301, "lon": 151.167376, "length_m": 0, "n_frames": 1, "n_road_frames": 1, "n_lines_found": 1, "detect_rate": 1.0, "both_lines_rate": 0.0, "median_contrast": 83.5, "n_review": 0, "n_not_road": 0, "verdict": "insufficient_evidence", "confidence": "low", "frame_ids": "1109802292856216"}}, {"type": "Feature", "geometry": {"type": "LineString", "coordinates": [[151.16763866312, -33.917558325622], [151.16756994555, -33.91748707451], [151.16753671439, -33.917452922048], [151.16747028638, -33.917383954301]]}, "properties": {"segment_id": "S0077", "sequence": "ZahUy6pJntiFSlKBz0g8Qr", "area": "princes_hwy", "lat": -33.917471, "lon": 151.167554, "length_m": 25, "n_frames": 4, "n_road_frames": 4, "n_lines_found": 3, "detect_rate": 0.75, "both_lines_rate": 0.0, "median_contrast": 73.8, "n_review": 0, "n_not_road": 0, "verdict": "at_risk", "confidence": "medium", "frame_ids": "1338479757667825;1183606787006015;1129533292579315;1351704973159761"}}, {"type": "Feature", "geometry": {"type": "LineString", "coordinates": [[151.16715155423, -33.914307168605], [151.16711757941, -33.914326234939], [151.1670760131, -33.914357477136], [151.16706559788, -33.91437391899], [151.16706094398, -33.914389533915], [151.167059831, -33.914406605823], [151.16706313071, -33.914421236626], [151.16706860581, -33.914439085709], [151.16707594507, -33.914447505504], [151.1670926396, -33.914469738223], [151.16710425423, -33.914479497131], [151.16714539808, -33.914513654329]]}, "properties": {"segment_id": "S0078", "sequence": "mT2Xtpf5R06z9iGUnPJLDB", "area": "princes_hwy", "lat": -33.914411, "lon": 151.16709, "length_m": 23, "n_frames": 12, "n_road_frames": 11, "n_lines_found": 4, "detect_rate": 0.36, "both_lines_rate": 0.0, "median_contrast": 96.4, "n_review": 1, "n_not_road": 0, "verdict": "not_readable", "confidence": "high", "frame_ids": "27212209398368096;1161464536010782;803166382388460;1247271147088600;1265455289117132;1620951425792285;1481764606957544;831735269966907;2752107528486318;1265086918931493;1471213014793646;924555267132600"}}, {"type": "Feature", "geometry": {"type": "Point", "coordinates": [151.16748453661, -33.917390480636]}, "properties": {"segment_id": "S0079", "sequence": "POecUFlZ8AnHQ1NCsmJhRf", "area": "princes_hwy", "lat": -33.91739, "lon": 151.167485, "length_m": 0, "n_frames": 1, "n_road_frames": 1, "n_lines_found": 1, "detect_rate": 1.0, "both_lines_rate": 0.0, "median_contrast": 69.5, "n_review": 0, "n_not_road": 0, "verdict": "insufficient_evidence", "confidence": "low", "frame_ids": "1169426800762244"}}, {"type": "Feature", "geometry": {"type": "LineString", "coordinates": [[151.1676421413, -33.917564350779], [151.16760590968, -33.917527913686], [151.16753446441, -33.917456628792]]}, "properties": {"segment_id": "S0080", "sequence": "wEIPBVNUyeb5nfaj820XxD", "area": "princes_hwy", "lat": -33.917516, "lon": 151.167594, "length_m": 16, "n_frames": 3, "n_road_frames": 3, "n_lines_found": 3, "detect_rate": 1.0, "both_lines_rate": 0.67, "median_contrast": 60.5, "n_review": 0, "n_not_road": 0, "verdict": "at_risk", "confidence": "medium", "frame_ids": "1183172406817225;1318337592786897;1200960614754420"}}, {"type": "Feature", "geometry": {"type": "LineString", "coordinates": [[151.16749870927, -33.917304324668], [151.16756591555, -33.917358529508], [151.16777733932, -33.917541522502], [151.16783638541, -33.917591720685], [151.16787191296, -33.917622467874], [151.16788672925, -33.917633266425], [151.16812599661, -33.917594326856]]}, "properties": {"segment_id": "S0081", "sequence": "RDrBugytXn8VSYvxfFeIaz", "area": "princes_hwy", "lat": -33.917521, "lon": 151.167795, "length_m": 66, "n_frames": 7, "n_road_frames": 2, "n_lines_found": 2, "detect_rate": 1.0, "both_lines_rate": 0.0, "median_contrast": 67.8, "n_review": 5, "n_not_road": 0, "verdict": "at_risk", "confidence": "low", "frame_ids": "1312494663380439;1277038907424038;1221134696328306;1362235494825662;1321265382262701;1310720749998900;1188022816299979"}}]}